GLOBALSTAR M084         
1 38040U 11080A   25015.56692951 -.00000112  00000+0 -46757-4 0  9999
2 38040  51.9993 153.1036 0001242  98.2435 341.8137 12.62273511603390
GLOBALSTAR M080         
1 38041U 11080B   25015.79353858 -.00000127  00000+0 -12819-3 0  9992
2 38041  52.0044 153.9708 0001269  83.6835  64.2126 12.62260401603685
GLOBALSTAR M082         
1 38042U 11080C   25015.64787513 -.00000088  00000+0  88593-4 0  9994
2 38042  52.0075 109.8418 0000856 153.3279 354.1031 12.62272024604238
GLOBALSTAR M092         
1 38043U 11080D   25015.51394469 -.00000095  00000+0  48667-4 0  9991
2 38043  52.0055 200.6182 0001153  92.9212 285.6194 12.62272180602678
GLOBALSTAR M090         
1 38044U 11080E   25015.59331174 -.00000091  00000+0  72360-4 0  9997
2 38044  51.9885 104.0131 0000648 135.2223   3.7975 12.62265595604344
GLOBALSTAR M086         
1 38045U 11080F   25015.62000721 -.00000096  00000+0  44358-4 0  9994
2 38045  51.9899 104.4706 0000592  37.9178 102.9205 12.62265578604290
GLOBALSTAR M097         
1 39072U 13005A   25015.37821600 -.00000094  00000+0  52009-4 0  9993
2 39072  52.0064  19.5999 0000110  48.4471 311.6405 12.62268929551516
GLOBALSTAR M093         
1 39073U 13005B   25015.43037327 -.00000089  00000+0  82931-4 0  9997
2 39073  51.9830  12.9842 0000137   1.2849 358.8018 12.62271914551471
